NORAD_CAT_ID,OBJECT_NAME,OBJECT_TYPE,EPOCH,MEAN_MOTION,ECCENTRICITY,INCLINATION,RA_OF_ASC_NODE,ARG_OF_PERICENTER,MEAN_ANOMALY,BSTAR,MEAN_MOTION_DOT,MEAN_MOTION_DDOT,TLE_LINE0,TLE_LINE1,TLE_LINE2,SEMIMAJOR_AXIS,PERIOD,APOGEE,PERIGEE,DECAYED
51881.0,STARLINK-3504,PAYLOAD,2022-11-27 18:08:05,15.08831109,0.0002987,53.2184,336.8644,29.1,331.0158,-0.00012601,-2.293e-05,0.0,0 STARLINK-3504,1 51881U 22022AF  22331.75562089 -.00002293  00000-0 -12601-3 0  9995,2 51881  53.2184 336.8644 0002987  29.1000 331.0158 15.08831109 42452,6917.908,95.438,541.839,537.706,0.0
51881.0,STARLINK-3504,PAYLOAD,2022-11-28 11:37:19,15.08843515,0.0002972,53.2178,333.593,28.0825,332.0327,3.3711e-05,2.48e-06,0.0,0 STARLINK-3504,1 51881U 22022AF  22332.48425598  .00000248  00000-0  33711-4 0  9991,2 51881  53.2178 333.5930 0002972  28.0825 332.0327 15.08843515 42569,6917.87,95.437,541.7909999999998,537.679,0.0
51881.0,STARLINK-3504,PAYLOAD,2022-11-29 03:31:11,15.0883764,0.0002954,53.2177,330.619,27.1358,332.9788,7.4131e-05,8.91e-06,0.0,0 STARLINK-3504,1 51881U 22022AF  22333.14666013  .00000891  00000-0  74131-4 0  9999,2 51881  53.2177 330.6190 0002954  27.1358 332.9788 15.08837640 42668,6917.888000000001,95.438,541.7959999999998,537.7090000000002,0.0
51881.0,STARLINK-3504,PAYLOAD,2022-11-29 11:28:07,15.08838185,0.0002932,53.2184,329.1326,29.3767,330.7389,9.928e-05,1.292e-05,0.0,0 STARLINK-3504,1 51881U 22022AF  22333.47785885  .00001292  00000-0  99280-4 0  9992,2 51881  53.2184 329.1326 0002932  29.3767 330.7389 15.08838185 42718,6917.886,95.438,541.779,537.7230000000002,0.0
51881.0,STARLINK-3504,PAYLOAD,2022-11-30 08:08:08,15.08837674,0.0003045,53.2183,325.2671,27.5945,332.5209,7.3811e-05,8.86e-06,0.0,0 STARLINK-3504,1 51881U 22022AF  22334.33898261  .00000886  00000-0  73811-4 0  9991,2 51881  53.2183 325.2671 0003045  27.5945 332.5209 15.08837674 42848,6917.887,95.438,541.859,537.646,0.0
51881.0,STARLINK-3504,PAYLOAD,2022-11-30 11:18:54,15.08839498,0.0003057,53.2183,324.6723,27.5023,332.61300000000006,8.3485e-05,1.04e-05,0.0,0 STARLINK-3504,1 51881U 22022AF  22334.47146136  .00001040  00000-0  83485-4 0  9994,2 51881  53.2183 324.6723 0003057  27.5023 332.6130 15.08839498 42861,6917.882,95.438,541.862,537.632,0.0
51881.0,STARLINK-3504,PAYLOAD,2022-11-30 16:05:03,15.08844855,0.0003071,53.2183,323.7803,27.6042,332.5112,0.0001021,1.337e-05,0.0,0 STARLINK-3504,1 51881U 22022AF  22334.67017713  .00001337  00000-0  10210-3 0  9998,2 51881  53.2183 323.7803 0003071  27.6042 332.5112 15.08844855 42893,6917.866,95.437,541.855,537.606,0.0
51881.0,STARLINK-3504,PAYLOAD,2022-12-01 09:34:18,15.08836258,0.0003122,53.2186,320.5107,31.4702,328.6477,5.2311e-05,5.44e-06,0.0,0 STARLINK-3504,1 51881U 22022AF  22335.39882581  .00000544  00000-0  52311-4 0  9999,2 51881  53.2186 320.5107 0003122  31.4702 328.6477 15.08836258 43003,6917.892,95.438,541.9169999999998,537.597,0.0
51881.0,STARLINK-3504,PAYLOAD,2022-12-01 15:55:50,15.08846829,0.0003095,53.2184,319.3204,28.9312,331.1851,0.00011688,1.572e-05,0.0,0 STARLINK-3504,1 51881U 22022AF  22335.66377650  .00001572  00000-0  11688-3 0  9998,2 51881  53.2184 319.3204 0003095  28.9312 331.1851 15.08846829 43046,6917.86,95.437,541.866,537.5830000000002,0.0
51881.0,STARLINK-3504,PAYLOAD,2022-12-01 23:52:46,15.08842993,0.0003097,53.2189,317.8353,29.1934,330.9231,9.1644e-05,1.17e-05,0.0,0 STARLINK-3504,1 51881U 22022AF  22335.99497902  .00001170  00000-0  91644-4 0  9992,2 51881  53.2189 317.8353 0003097  29.1934 330.9231 15.08842993 43096,6917.871,95.437,541.879,537.594,0.0
51881.0,STARLINK-3504,PAYLOAD,2022-12-02 11:00:27,15.08845238,0.0003117,53.2183,315.7515,29.5515,330.5653,0.00012157,1.647e-05,0.0,0 STARLINK-3504,1 51881U 22022AF  22336.45865704  .00001647  00000-0  12157-3 0  9993,2 51881  53.2183 315.7515 0003117  29.5515 330.5653 15.08845238 43166,6917.864000000001,95.437,541.886,537.573,0.0
51881.0,STARLINK-3504,PAYLOAD,2022-12-02 15:46:37,15.0884009,0.0003266,53.2179,314.8575,30.6212,329.497,5.6691e-05,6.14e-06,0.0,0 STARLINK-3504,1 51881U 22022AF  22336.65738201  .00000614  00000-0  56691-4 0  9991,2 51881  53.2179 314.8575 0003266  30.6212 329.4970 15.08840090 43192,6917.88,95.438,542.004,537.486,0.0
51881.0,STARLINK-3504,PAYLOAD,2022-12-03 07:40:28,15.08854732,0.0003049,53.2182,311.8836,28.6238,331.4921,-0.00014908,-2.662e-05,0.0,0 STARLINK-3504,1 51881U 22022AF  22337.31977627 -.00002662  00000-0 -14908-3 0  9993,2 51881  53.2182 311.8836 0003049  28.6238 331.4921 15.08854732 43295,6917.835,95.437,541.81,537.591,0.0
51881.0,STARLINK-3504,PAYLOAD,2022-12-03 21:58:57,15.08837302,0.0003105,53.2183,309.2095,29.8028,330.314,-4.144100000000001e-05,-9.48e-06,0.0,0 STARLINK-3504,1 51881U 22022AF  22337.91594610 -.00000948  00000-0 -41441-4 0  9994,2 51881  53.2183 309.2095 0003105  29.8028 330.3140 15.08837302 43382,6917.889,95.438,541.9019999999998,537.606,0.0
51881.0,STARLINK-3504,PAYLOAD,2022-12-04 07:31:15,15.08844517,0.0003142,53.2178,307.4252,30.0058,330.1113,7.4599e-05,8.99e-06,0.0,0 STARLINK-3504,1 51881U 22022AF  22338.31337892  .00000899  00000-0  74599-4 0  9999,2 51881  53.2178 307.4252 0003142  30.0058 330.1113 15.08844517 43440,6917.8669999999975,95.437,541.905,537.558,0.0
51881.0,STARLINK-3504,PAYLOAD,2022-12-04 15:28:12,15.08839405,0.0002976,53.2188,305.9375,30.4608,329.6556,-4.3971e-06,-3.59e-06,0.0,0 STARLINK-3504,1 51881U 22022AF  22338.64458393 -.00000359  00000-0 -43971-5 0  9999,2 51881  53.2188 305.9375 0002976  30.4608 329.6556 15.08839405 43498,6917.882,95.438,541.806,537.688,0.0
51881.0,STARLINK-3504,PAYLOAD,2022-12-05 07:22:02,15.08845336,0.0003382,53.2187,302.9652,30.3631,329.7556,0.00017089,2.433e-05,0.0,0 STARLINK-3504,1 51881U 22022AF  22339.30697629  .00002433  00000-0  17089-3 0  9992,2 51881  53.2187 302.9652 0003382  30.3631 329.7556 15.08845336 43591,6917.864000000001,95.437,542.069,537.389,0.0
51881.0,STARLINK-3504,PAYLOAD,2022-12-06 07:12:49,15.08849654,0.0003086,53.219,298.5044,29.4186,330.6979,8.7002e-05,1.097e-05,0.0,0 STARLINK-3504,1 51881U 22022AF  22340.30057359  .00001097  00000-0  87002-4 0  9992,2 51881  53.2190 298.5044 0003086  29.4186 330.6979 15.08849654 43749,6917.851,95.437,541.851,537.581,0.0
51881.0,STARLINK-3504,PAYLOAD,2022-12-07 07:03:38,15.08832587,0.0003286,53.2172,294.0442,28.8238,331.2936,-8.230700000000001e-05,-1.598e-05,0.0,0 STARLINK-3504,1 51881U 22022AF  22341.29419297 -.00001598  00000-0 -82307-4 0  9995,2 51881  53.2172 294.0442 0003286  28.8238 331.2936 15.08832587 43898,6917.903,95.438,542.0409999999998,537.495,0.0
51881.0,STARLINK-3504,PAYLOAD,2022-12-08 13:15:56,15.08851701,0.0003069,53.2185,288.3948,29.679,330.4375,0.00015297,2.148e-05,0.0,0 STARLINK-3504,1 51881U 22022AF  22342.55273768  .00002148  00000-0  15297-3 0  9999,2 51881  53.2185 288.3948 0003069  29.6790 330.4375 15.08851701 44089,6917.845,95.437,541.8330000000002,537.587,0.0
51881.0,STARLINK-3504,PAYLOAD,2022-12-08 22:48:15,15.08846354,0.0002859,53.2186,286.6123,33.3603,326.7569,0.00024475,3.61e-05,0.0,0 STARLINK-3504,1 51881U 22022AF  22342.95018132  .00003610  00000-0  24475-3 0  9998,2 51881  53.2186 286.6123 0002859  33.3603 326.7569 15.08846354 44145,6917.861,95.437,541.7040000000002,537.748,0.0
51881.0,STARLINK-3504,PAYLOAD,2022-12-09 03:34:25,15.0884711,0.0002179,53.219,285.7261,47.7588,312.3589,0.00014732,2.058e-05,0.0,0 STARLINK-3504,1 51881U 22022AF  22343.14890262  .00002058  00000-0  14732-3 0  9992,2 51881  53.2190 285.7261 0002179  47.7588 312.3589 15.08847110 44176,6917.859,95.437,541.231,538.216,0.0
51881.0,STARLINK-3504,PAYLOAD,2022-12-10 05:00:37,15.08833917,0.0002875,53.2187,280.9673,34.0613,326.0563,-2.0349e-05,-6.12e-06,0.0,0 STARLINK-3504,1 51881U 22022AF  22344.20876479 -.00000612  00000-0 -20349-4 0  9992,2 51881  53.2187 280.9673 0002875  34.0613 326.0563 15.08833917 44339,6917.899,95.438,541.753,537.775,0.0
51881.0,STARLINK-3504,PAYLOAD,2022-12-11 04:51:24,15.08837437,0.0003112,53.2173,276.5014,25.3547,334.7597,8.720700000000001e-05,1.099e-05,0.0,0 STARLINK-3504,1 51881U 22022AF  22345.20236403  .00001099  00000-0  87207-4 0  9994,2 51881  53.2173 276.5014 0003112  25.3547 334.7597 15.08837437 44488,6917.888000000001,95.438,541.906,537.6,0.0
51881.0,STARLINK-3504,PAYLOAD,2022-12-12 03:06:47,15.08851262,0.000284,53.2165,272.3374,23.887,336.2253,0.00041246,6.284e-05,0.0,0 STARLINK-3504,1 51881U 22022AF  22346.12972113  .00006284  00000-0  41246-3 0  9994,2 51881  53.2165 272.3374 0002840  23.8870 336.2253 15.08851262 44625,6917.846,95.437,541.6759999999998,537.746,0.0
51881.0,STARLINK-3504,PAYLOAD,2022-12-13 04:32:57,15.08848266,0.0003036,53.2174,267.5805,25.8458,334.2685,0.00011883,1.604e-05,0.0,0 STARLINK-3504,1 51881U 22022AF  22347.18955810  .00001604  00000-0  11883-3 0  9991,2 51881  53.2174 267.5805 0003036  25.8458 334.2685 15.08848266 44786,6917.855,95.437,541.82,537.62,0.0
51881.0,STARLINK-3504,PAYLOAD,2022-12-13 12:29:53,15.08843935,0.0003069,53.2175,266.0929,26.6885,333.4264,6.1759e-05,6.95e-06,0.0,0 STARLINK-3504,1 51881U 22022AF  22347.52075912  .00000695  00000-0  61759-4 0  9992,2 51881  53.2175 266.0929 0003069  26.6885 333.4264 15.08843935 44835,6917.868,95.437,541.856,537.61,0.0
51881.0,STARLINK-3504,PAYLOAD,2022-12-14 04:23:44,15.08844331,0.0002967,53.2176,263.1186,22.8802,337.2322,3.0865e-06,-2.4e-06,0.0,0 STARLINK-3504,1 51881U 22022AF  22348.18315625 -.00000240  00000-0  30865-5 0  9995,2 51881  53.2176 263.1186 0002967  22.8802 337.2322 15.08844331 44931,6917.8669999999975,95.437,541.785,537.68,0.0
51881.0,STARLINK-3504,PAYLOAD,2022-12-15 10:36:04,15.08838493,0.0003053,53.2178,257.4699,24.4234,335.6902,9.1491e-06,-1.43e-06,0.0,0 STARLINK-3504,1 51881U 22022AF  22349.44171849 -.00000143  00000-0  91491-5 0  9997,2 51881  53.2178 257.4699 0003053  24.4234 335.6902 15.08838493 45122,6917.885,95.438,541.862,537.638,0.0
